<?xml version="1.0" encoding="UTF-8"?><kml xmlns="http://www.opengis.net/kml/2.2"><Document><name>Four Marks Whitewool benchmark terrain analysis</name><Placemark><name>Unnamed face near SU 726 254</name><description>Passed terrain threshold; Rank 1 terrain-only. Representative sustained slope 16.0° versus Whitewool 11.9°; relief 74 m versus 56 m; continuous ridge 2368 m versus 1196 m; 60% of the broader face reaches the benchmark threshold. Obstacles: OSM query failed: 406 Client Error: Not Acceptable for url: https://overpass-api.de/api/interpreter Airspace: Nearest aerodromes: Lasham Gliding Centre 11.6 mi, Popham Airfield 16.5 mi. This is proximity screening only; current chart/NOTAM and local operating procedures remain mandatory.</description><Point><coordinates>-0.9674568261616863,51.02355431759982,0</coordinates></Point></Placemark><Placemark><name>Unnamed face near TQ 107 488</name><description>Passed terrain threshold; Rank 2 terrain-only. Representative sustained slope 13.3° versus Whitewool 11.9°; relief 58 m versus 56 m; continuous ridge 2600 m versus 1196 m; 45% of the broader face reaches the benchmark threshold. Obstacles: OSM query failed: 406 Client Error: Not Acceptable for url: https://overpass-api.de/api/interpreter Airspace: Nearest aerodromes: Lasham Gliding Centre 27.1 mi, Popham Airfield 35.7 mi. This is proximity screening only; current chart/NOTAM and local operating procedures remain mandatory.</description><Point><coordinates>-0.41373834574256363,51.2280103607176,0</coordinates></Point></Placemark><Placemark><name>Unnamed face near SU 734 266</name><description>Passed terrain threshold; Rank 3 terrain-only. Representative sustained slope 16.5° versus Whitewool 11.9°; relief 74 m versus 56 m; continuous ridge 1840 m versus 1196 m; 57% of the broader face reaches the benchmark threshold. Obstacles: OSM query failed: 406 Client Error: Not Acceptable for url: https://overpass-api.de/api/interpreter Airspace: Nearest aerodromes: Lasham Gliding Centre 11.0 mi, Popham Airfield 16.5 mi. This is proximity screening only; current chart/NOTAM and local operating procedures remain mandatory.</description><Point><coordinates>-0.947979734628519,51.036675652644035,0</coordinates></Point></Placemark><Placemark><name>Unnamed face near SU 717 248</name><description>Passed terrain threshold; Rank 4 terrain-only. Representative sustained slope 15.9° versus Whitewool 11.9°; relief 75 m versus 56 m; continuous ridge 1850 m versus 1196 m; 57% of the broader face reaches the benchmark threshold. Obstacles: OSM query failed: 406 Client Error: Not Acceptable for url: https://overpass-api.de/api/interpreter Airspace: Nearest aerodromes: Lasham Gliding Centre 11.7 mi, Popham Airfield 16.5 mi. This is proximity screening only; current chart/NOTAM and local operating procedures remain mandatory.</description><Point><coordinates>-0.9723985264598426,51.021384541466674,0</coordinates></Point></Placemark><Placemark><name>Unnamed face near SU 855 290</name><description>Failed terrain threshold; Representative sustained slope 13.3° versus Whitewool 11.9°; relief 56 m versus 56 m; continuous ridge 1374 m versus 1196 m; 27% of the broader face reaches the benchmark threshold. Obstacles: Not yet checked Airspace: Not yet checked</description><Point><coordinates>-0.7769201742783891,51.054597373673296,0</coordinates></Point></Placemark><Placemark><name>Unnamed face near SU 316 564</name><description>Failed terrain threshold; Representative sustained slope 14.2° versus Whitewool 11.9°; relief 62 m versus 56 m; continuous ridge 1803 m versus 1196 m; 25% of the broader face reaches the benchmark threshold. Obstacles: Not yet checked Airspace: Not yet checked</description><Point><coordinates>-1.5488054114175123,51.30677734009598,0</coordinates></Point></Placemark><Placemark><name>Unnamed face near TQ 009 387</name><description>Failed terrain threshold; Representative sustained slope 13.9° versus Whitewool 11.9°; relief 57 m versus 56 m; continuous ridge 1297 m versus 1196 m; 31% of the broader face reaches the benchmark threshold. Obstacles: Not yet checked Airspace: Not yet checked</description><Point><coordinates>-0.5606970212193395,51.13901208333406,0</coordinates></Point></Placemark><Placemark><name>Unnamed face near TQ 077 486</name><description>Failed terrain threshold; Representative sustained slope 12.4° versus Whitewool 11.9°; relief 52 m versus 56 m; continuous ridge 1643 m versus 1196 m; 28% of the broader face reaches the benchmark threshold. Obstacles: Not yet checked Airspace: Not yet checked</description><Point><coordinates>-0.4586785257809621,51.22701201914121,0</coordinates></Point></Placemark><Placemark><name>Unnamed face near SU 631 067</name><description>Failed terrain threshold; Representative sustained slope 12.4° versus Whitewool 11.9°; relief 53 m versus 56 m; continuous ridge 2564 m versus 1196 m; 25% of the broader face reaches the benchmark threshold. Obstacles: Not yet checked Airspace: Not yet checked</description><Point><coordinates>-1.1019844363107112,50.856527398721546,0</coordinates></Point></Placemark><Placemark><name>Unnamed face near SU 822 109</name><description>Failed terrain threshold; Representative sustained slope 15.1° versus Whitewool 11.9°; relief 69 m versus 56 m; continuous ridge 1039 m versus 1196 m; 18% of the broader face reaches the benchmark threshold. Obstacles: Not yet checked Airspace: Not yet checked</description><Point><coordinates>-0.8337060386355781,50.89215176221401,0</coordinates></Point></Placemark><Placemark><name>Unnamed face near SU 740 312</name><description>Passed terrain threshold; Rank 5 terrain-only. Representative sustained slope 14.6° versus Whitewool 11.9°; relief 67 m versus 56 m; continuous ridge 1284 m versus 1196 m; 40% of the broader face reaches the benchmark threshold. Obstacles: OSM query failed: 406 Client Error: Not Acceptable for url: https://overpass-api.de/api/interpreter Airspace: Nearest aerodromes: Lasham Gliding Centre 8.6 mi, Popham Airfield 15.2 mi. This is proximity screening only; current chart/NOTAM and local operating procedures remain mandatory.</description><Point><coordinates>-0.9377124877511499,51.0779075781472,0</coordinates></Point></Placemark><Placemark><name>Unnamed face near SU 996 384</name><description>Failed terrain threshold; Representative sustained slope 13.4° versus Whitewool 11.9°; relief 56 m versus 56 m; continuous ridge 1088 m versus 1196 m; 19% of the broader face reaches the benchmark threshold. Obstacles: Not yet checked Airspace: Not yet checked</description><Point><coordinates>-0.5783625877711663,51.13764098864378,0</coordinates></Point></Placemark><Placemark><name>Unnamed face near SU 877 309</name><description>Failed terrain threshold; Representative sustained slope 12.6° versus Whitewool 11.9°; relief 53 m versus 56 m; continuous ridge 1760 m versus 1196 m; 21% of the broader face reaches the benchmark threshold. Obstacles: Not yet checked Airspace: Not yet checked</description><Point><coordinates>-0.7459939274705373,51.07110694547168,0</coordinates></Point></Placemark><Placemark><name>Unnamed face near TQ 055 490</name><description>Failed terrain threshold; Representative sustained slope 11.7° versus Whitewool 11.9°; relief 47 m versus 56 m; continuous ridge 2294 m versus 1196 m; 10% of the broader face reaches the benchmark threshold. Obstacles: Not yet checked Airspace: Not yet checked</description><Point><coordinates>-0.4907838508059753,51.23134195432208,0</coordinates></Point></Placemark><Placemark><name>Unnamed face near SU 899 135</name><description>Failed terrain threshold; Representative sustained slope 13.0° versus Whitewool 11.9°; relief 56 m versus 56 m; continuous ridge 1074 m versus 1196 m; 28% of the broader face reaches the benchmark threshold. Obstacles: Not yet checked Airspace: Not yet checked</description><Point><coordinates>-0.7222683217110552,50.91467801152842,0</coordinates></Point></Placemark><Placemark><name>Unnamed face near TQ 102 429</name><description>Failed terrain threshold; Representative sustained slope 12.8° versus Whitewool 11.9°; relief 53 m versus 56 m; continuous ridge 1221 m versus 1196 m; 10% of the broader face reaches the benchmark threshold. Obstacles: Not yet checked Airspace: Not yet checked</description><Point><coordinates>-0.4243371459323602,51.175266683048726,0</coordinates></Point></Placemark><Placemark><name>Unnamed face near SU 724 190</name><description>Passed terrain threshold; Rank 6 terrain-only. Representative sustained slope 13.5° versus Whitewool 11.9°; relief 61 m versus 56 m; continuous ridge 923 m versus 1196 m; 37% of the broader face reaches the benchmark threshold. Obstacles: OSM query failed: 406 Client Error: Not Acceptable for url: https://overpass-api.de/api/interpreter Airspace: Nearest aerodromes: Lasham Gliding Centre 14.9 mi, Solent Airport 14.9 mi. This is proximity screening only; current chart/NOTAM and local operating procedures remain mandatory.</description><Point><coordinates>-0.9794331826802986,50.97430296410329,0</coordinates></Point></Placemark><Placemark><name>Unnamed face near SU 373 614</name><description>Failed terrain threshold; Representative sustained slope 13.6° versus Whitewool 11.9°; relief 57 m versus 56 m; continuous ridge 1019 m versus 1196 m; 21% of the broader face reaches the benchmark threshold. Obstacles: Not yet checked Airspace: Not yet checked</description><Point><coordinates>-1.4652656190564755,51.351289831827785,0</coordinates></Point></Placemark><Placemark><name>Unnamed face near SU 889 297</name><description>Failed terrain threshold; Representative sustained slope 13.0° versus Whitewool 11.9°; relief 54 m versus 56 m; continuous ridge 1015 m versus 1196 m; 19% of the broader face reaches the benchmark threshold. Obstacles: Not yet checked Airspace: Not yet checked</description><Point><coordinates>-0.7327631640525268,51.06110287708883,0</coordinates></Point></Placemark><Placemark><name>Unnamed face near TQ 082 422</name><description>Failed terrain threshold; Representative sustained slope 13.5° versus Whitewool 11.9°; relief 56 m versus 56 m; continuous ridge 935 m versus 1196 m; 12% of the broader face reaches the benchmark threshold. Obstacles: Not yet checked Airspace: Not yet checked</description><Point><coordinates>-0.4513050393777524,51.17125339310936,0</coordinates></Point></Placemark><Placemark><name>Unnamed face near TQ 060 425</name><description>Failed terrain threshold; Representative sustained slope 12.6° versus Whitewool 11.9°; relief 52 m versus 56 m; continuous ridge 1312 m versus 1196 m; 11% of the broader face reaches the benchmark threshold. Obstacles: Not yet checked Airspace: Not yet checked</description><Point><coordinates>-0.48251874730430655,51.172038659731705,0</coordinates></Point></Placemark><Placemark><name>Unnamed face near TQ 028 482</name><description>Failed terrain threshold; Representative sustained slope 13.6° versus Whitewool 11.9°; relief 59 m versus 56 m; continuous ridge 859 m versus 1196 m; 20% of the broader face reaches the benchmark threshold. Obstacles: Not yet checked Airspace: Not yet checked</description><Point><coordinates>-0.5292503797514538,51.22425251883909,0</coordinates></Point></Placemark><Placemark><name>Unnamed face near SU 884 135</name><description>Failed terrain threshold; Representative sustained slope 13.2° versus Whitewool 11.9°; relief 59 m versus 56 m; continuous ridge 952 m versus 1196 m; 29% of the broader face reaches the benchmark threshold. Obstacles: Not yet checked Airspace: Not yet checked</description><Point><coordinates>-0.7418281230977184,50.91529498702342,0</coordinates></Point></Placemark><Placemark><name>Unnamed face near SU 394 600</name><description>Failed terrain threshold; Representative sustained slope 13.7° versus Whitewool 11.9°; relief 60 m versus 56 m; continuous ridge 996 m versus 1196 m; 27% of the broader face reaches the benchmark threshold. Obstacles: Not yet checked Airspace: Not yet checked</description><Point><coordinates>-1.4316506265837934,51.33607967374705,0</coordinates></Point></Placemark><Placemark><name>Unnamed face near SU 936 148</name><description>Failed terrain threshold; Representative sustained slope 14.3° versus Whitewool 11.9°; relief 62 m versus 56 m; continuous ridge 733 m versus 1196 m; 10% of the broader face reaches the benchmark threshold. Obstacles: Not yet checked Airspace: Not yet checked</description><Point><coordinates>-0.6697368864124097,50.92493864843143,0</coordinates></Point></Placemark><Placemark><name>Unnamed face near SU 923 305</name><description>Failed terrain threshold; Representative sustained slope 13.8° versus Whitewool 11.9°; relief 59 m versus 56 m; continuous ridge 793 m versus 1196 m; 30% of the broader face reaches the benchmark threshold. Obstacles: Not yet checked Airspace: Not yet checked</description><Point><coordinates>-0.6823933127042419,51.06799000316709,0</coordinates></Point></Placemark><Placemark><name>Unnamed face near SU 381 601</name><description>Failed terrain threshold; Representative sustained slope 12.6° versus Whitewool 11.9°; relief 55 m versus 56 m; continuous ridge 958 m versus 1196 m; 15% of the broader face reaches the benchmark threshold. Obstacles: Not yet checked Airspace: Not yet checked</description><Point><coordinates>-1.45607562671708,51.33861861132785,0</coordinates></Point></Placemark><Placemark><name>Pidham Hill</name><description>Failed terrain threshold; Representative sustained slope 12.5° versus Whitewool 11.9°; relief 55 m versus 56 m; continuous ridge 944 m versus 1196 m; 28% of the broader face reaches the benchmark threshold. Obstacles: Not yet checked Airspace: Not yet checked</description><Point><coordinates>-1.0151891756269185,51.00042312682658,0</coordinates></Point></Placemark><Placemark><name>Unnamed face near SU 604 224</name><description>Failed terrain threshold; Representative sustained slope 12.7° versus Whitewool 11.9°; relief 54 m versus 56 m; continuous ridge 1140 m versus 1196 m; 15% of the broader face reaches the benchmark threshold. Obstacles: Not yet checked Airspace: Not yet checked</description><Point><coordinates>-1.1409757273956782,50.99661949412346,0</coordinates></Point></Placemark><Placemark><name>Unnamed face near TQ 045 123</name><description>Failed terrain threshold; Representative sustained slope 12.0° versus Whitewool 11.9°; relief 58 m versus 56 m; continuous ridge 796 m versus 1196 m; 11% of the broader face reaches the benchmark threshold. Obstacles: Not yet checked Airspace: Not yet checked</description><Point><coordinates>-0.5145761316429321,50.901259776311775,0</coordinates></Point></Placemark><Placemark><name>Unnamed face near SU 713 198</name><description>Failed terrain threshold; Representative sustained slope 14.1° versus Whitewool 11.9°; relief 80 m versus 56 m; continuous ridge 654 m versus 1196 m; 37% of the broader face reaches the benchmark threshold. Obstacles: Not yet checked Airspace: Not yet checked</description><Point><coordinates>-0.9859318866116559,50.98217833113883,0</coordinates></Point></Placemark><Placemark><name>Unnamed face near SZ 573 874</name><description>Failed terrain threshold; Representative sustained slope 13.4° versus Whitewool 11.9°; relief 59 m versus 56 m; continuous ridge 804 m versus 1196 m; 20% of the broader face reaches the benchmark threshold. Obstacles: Not yet checked Airspace: Not yet checked</description><Point><coordinates>-1.1917108121355837,50.68340724662008,0</coordinates></Point></Placemark><Placemark><name>Unnamed face near TQ 021 083</name><description>Failed terrain threshold; Representative sustained slope 13.2° versus Whitewool 11.9°; relief 62 m versus 56 m; continuous ridge 665 m versus 1196 m; 26% of the broader face reaches the benchmark threshold. Obstacles: Not yet checked Airspace: Not yet checked</description><Point><coordinates>-0.5502625529136178,50.866127494793076,0</coordinates></Point></Placemark><Placemark><name>Pidham Hill</name><description>Failed terrain threshold; Representative sustained slope 13.4° versus Whitewool 11.9°; relief 64 m versus 56 m; continuous ridge 794 m versus 1196 m; 14% of the broader face reaches the benchmark threshold. Obstacles: Not yet checked Airspace: Not yet checked</description><Point><coordinates>-1.006673721359512,51.00724859315845,0</coordinates></Point></Placemark><Placemark><name>Unnamed face near SU 738 290</name><description>Failed terrain threshold; Representative sustained slope 14.7° versus Whitewool 11.9°; relief 65 m versus 56 m; continuous ridge 316 m versus 1196 m; 49% of the broader face reaches the benchmark threshold. Obstacles: Not yet checked Airspace: Not yet checked</description><Point><coordinates>-0.9518698897283989,51.04563005100176,0</coordinates></Point></Placemark><Placemark><name>Unnamed face near SU 587 809</name><description>Failed terrain threshold; Representative sustained slope 13.0° versus Whitewool 11.9°; relief 56 m versus 56 m; continuous ridge 605 m versus 1196 m; 24% of the broader face reaches the benchmark threshold. Obstacles: Not yet checked Airspace: Not yet checked</description><Point><coordinates>-1.1553815233892704,51.524619833069856,0</coordinates></Point></Placemark><Placemark><name>Unnamed face near SU 641 204</name><description>Failed terrain threshold; Representative sustained slope 13.4° versus Whitewool 11.9°; relief 68 m versus 56 m; continuous ridge 501 m versus 1196 m; 10% of the broader face reaches the benchmark threshold. Obstacles: Not yet checked Airspace: Not yet checked</description><Point><coordinates>-1.0827390100577716,50.98793108895669,0</coordinates></Point></Placemark><Placemark><name>Pidham Hill</name><description>Failed terrain threshold; Representative sustained slope 13.3° versus Whitewool 11.9°; relief 63 m versus 56 m; continuous ridge 850 m versus 1196 m; 13% of the broader face reaches the benchmark threshold. Obstacles: Not yet checked Airspace: Not yet checked</description><Point><coordinates>-1.0066425117884978,51.007262487519654,0</coordinates></Point></Placemark><Placemark><name>Holybourne slopes</name><description>Failed terrain threshold; Representative sustained slope 12.2° versus Whitewool 11.9°; relief 53 m versus 56 m; continuous ridge 606 m versus 1196 m; 13% of the broader face reaches the benchmark threshold. Obstacles: Not yet checked Airspace: Not yet checked</description><Point><coordinates>-0.9654727763118456,51.175716262947674,0</coordinates></Point></Placemark><Placemark><name>Henwood Down</name><description>Failed terrain threshold; Representative sustained slope 11.9° versus Whitewool 11.9°; relief 53 m versus 56 m; continuous ridge 567 m versus 1196 m; 15% of the broader face reaches the benchmark threshold. Obstacles: Not yet checked Airspace: Not yet checked</description><Point><coordinates>-1.055708185537308,50.99892404411868,0</coordinates></Point></Placemark><Placemark><name>Bighton Hill</name><description>Failed terrain threshold; No contiguous south-east to south-west face in the 3 km verification window met the sustained-slope and relief pre-filter. Obstacles: Not yet checked Airspace: Not yet checked</description><Point><coordinates>-1.100259988185225,51.090169995067654,0</coordinates></Point></Placemark><Placemark><name>Neatham Down</name><description>Failed terrain threshold; No contiguous south-east to south-west face in the 3 km verification window met the sustained-slope and relief pre-filter. Obstacles: Not yet checked Airspace: Not yet checked</description><Point><coordinates>-0.9500999880793896,51.14849999511413,0</coordinates></Point></Placemark><Placemark><name>Longwood Warren</name><description>Failed terrain threshold; No contiguous south-east to south-west face in the 3 km verification window met the sustained-slope and relief pre-filter. Obstacles: Not yet checked Airspace: Not yet checked</description><Point><coordinates>-1.218509988276505,51.03127999502132,0</coordinates></Point></Placemark><Placemark><name>Gander Down</name><description>Failed terrain threshold; No contiguous south-east to south-west face in the 3 km verification window met the sustained-slope and relief pre-filter. Obstacles: Not yet checked Airspace: Not yet checked</description><Point><coordinates>-1.2159999882712351,51.03849999502672,0</coordinates></Point></Placemark><Placemark><name>Bramdean slopes</name><description>Failed terrain threshold; No contiguous south-east to south-west face in the 3 km verification window met the sustained-slope and relief pre-filter. Obstacles: Not yet checked Airspace: Not yet checked</description><Point><coordinates>-1.1199999882286304,51.029999995022436,0</coordinates></Point></Placemark><Placemark><name>Candover Valley</name><description>Failed terrain threshold; No contiguous south-east to south-west face in the 3 km verification window met the sustained-slope and relief pre-filter. Obstacles: Not yet checked Airspace: Not yet checked</description><Point><coordinates>-1.1334999881500627,51.182599995136385,0</coordinates></Point></Placemark><Placemark><name>Upton Grey</name><description>Failed terrain threshold; No contiguous south-east to south-west face in the 3 km verification window met the sustained-slope and relief pre-filter. Obstacles: Not yet checked Airspace: Not yet checked</description><Point><coordinates>-1.0044999880560108,51.2371999951797,0</coordinates></Point></Placemark><Placemark><name>Barn Lane and Kingswood Rise</name><description>Failed terrain threshold; No contiguous south-east to south-west face in the 3 km verification window met the sustained-slope and relief pre-filter. Obstacles: Not yet checked Airspace: Not yet checked</description><Point><coordinates>-1.060739988156357,51.10714999508112,0</coordinates></Point></Placemark><Placemark><name>Semaphore Farm and Headmore</name><description>Failed terrain threshold; No contiguous south-east to south-west face in the 3 km verification window met the sustained-slope and relief pre-filter. Obstacles: Not yet checked Airspace: Not yet checked</description><Point><coordinates>-1.0317999881449187,51.10239999507815,0</coordinates></Point></Placemark><Placemark><name>Tunworth Down</name><description>Failed terrain threshold; No contiguous south-east to south-west face in the 3 km verification window met the sustained-slope and relief pre-filter. Obstacles: Not yet checked Airspace: Not yet checked</description><Point><coordinates>-1.0087499607756396,51.23598367552898,0</coordinates></Point></Placemark><Placemark><name>Axford slopes</name><description>Failed terrain threshold; No contiguous south-east to south-west face in the 3 km verification window met the sustained-slope and relief pre-filter. Obstacles: Not yet checked Airspace: Not yet checked</description><Point><coordinates>-1.1454999882335835,51.04349999503195,0</coordinates></Point></Placemark><Placemark><name>Weston Corbett</name><description>Failed terrain threshold; No contiguous south-east to south-west face in the 3 km verification window met the sustained-slope and relief pre-filter. Obstacles: Not yet checked Airspace: Not yet checked</description><Point><coordinates>-1.024499988074028,51.22249999516827,0</coordinates></Point></Placemark><Placemark><name>Farleigh Hill</name><description>Failed terrain threshold; No contiguous south-east to south-west face in the 3 km verification window met the sustained-slope and relief pre-filter. Obstacles: Not yet checked Airspace: Not yet checked</description><Point><coordinates>-1.1080391546822865,51.212503498888346,0</coordinates></Point></Placemark><Placemark><name>Bentworth slopes</name><description>Failed terrain threshold; No contiguous south-east to south-west face in the 3 km verification window met the sustained-slope and relief pre-filter. Obstacles: Not yet checked Airspace: Not yet checked</description><Point><coordinates>-1.0544999881262098,51.1554999951174,0</coordinates></Point></Placemark><Placemark><name>Chawton Park</name><description>Failed terrain threshold; No contiguous south-east to south-west face in the 3 km verification window met the sustained-slope and relief pre-filter. Obstacles: Not yet checked Airspace: Not yet checked</description><Point><coordinates>-1.0119999881214614,51.1269999950969,0</coordinates></Point></Placemark><Placemark><name>Windmill Down</name><description>Failed terrain threshold; No contiguous south-east to south-west face in the 3 km verification window met the sustained-slope and relief pre-filter. Obstacles: Not yet checked Airspace: Not yet checked</description><Point><coordinates>-1.0800999882600169,50.9397999949567,0</coordinates></Point></Placemark></Document></kml>